[
    {
        "Altitude(m)": 604983.052866587,
        "Argument of Periapsis(deg)": 0.0,
        "Eccentricity": 0.0,
        "Inclination(deg)": 60.0,
        "Latitude(deg)": -0.09256220702781877,
        "Longitude(deg)": 140.08391626465948,
        "Mean Anomaly(deg)": 180.0,
        "RAAN(deg)": 60.0,
        "Satellite Name": "Test1 275",
        "Satellite Number": 275,
        "Semi-Major Axis(m)": 6980739.136638005,
        "Time(s)": 0
    },
    {
        "Altitude(m)": 605055.3317312851,
        "Argument of Periapsis(deg)": 0.00010418945913296404,
        "Eccentricity": 0.0,
        "Inclination(deg)": 60.0,
        "Latitude(deg)": -0.6329724817467036,
        "Longitude(deg)": 140.3520403762181,
        "Mean Anomaly(deg)": 180.62010614546185,
        "RAAN(deg)": 59.99957995086026,
        "Satellite Name": "Test1 275",
        "Satellite Number": 275,
        "Semi-Major Axis(m)": 6980739.136638005,
        "Time(s)": 10
    },
    {
        "Altitude(m)": 605130.8196627672,
        "Argument of Periapsis(deg)": 0.0002083789182659281,
        "Eccentricity": 0.0,
        "Inclination(deg)": 60.0,
        "Latitude(deg)": -1.1733518382382881,
        "Longitude(deg)": 140.62022211751824,
        "Mean Anomaly(deg)": 181.24021229092364,
        "RAAN(deg)": 59.99915990172052,
        "Satellite Name": "Test1 275",
        "Satellite Number": 275,
        "Semi-Major Axis(m)": 6980739.136638005,
        "Time(s)": 20
    },
    {
        "Altitude(m)": 605209.5056979719,
        "Argument of Periapsis(deg)": 0.00031256837739889213,
        "Eccentricity": 0.0,
        "Inclination(deg)": 60.0,
        "Latitude(deg)": -1.713683196128841,
        "Longitude(deg)": 140.88851587623674,
        "Mean Anomaly(deg)": 181.86031843638546,
        "RAAN(deg)": 59.998739852580776,
        "Satellite Name": "Test1 275",
        "Satellite Number": 275,
        "Semi-Major Axis(m)": 6980739.136638005,
        "Time(s)": 30
    },
    {
        "Altitude(m)": 605291.3773499092,
        "Argument of Periapsis(deg)": 0.0004167578365318562,
        "Eccentricity": 0.0,
        "Inclination(deg)": 60.0,
        "Latitude(deg)": -2.253949456995873,
        "Longitude(deg)": 141.15697660783692,
        "Mean Anomaly(deg)": 182.4804245818473,
        "RAAN(deg)": 59.998319803441035,
        "Satellite Name": "Test1 275",
        "Satellite Number": 275,
        "Semi-Major Axis(m)": 6980739.136638005,
        "Time(s)": 40
    },
    {
        "Altitude(m)": 605376.4206109862,
        "Argument of Periapsis(deg)": 0.0005209472956648203,
        "Eccentricity": 0.0,
        "Inclination(deg)": 60.0,
        "Latitude(deg)": -2.794133494454999,
        "Longitude(deg)": 141.42565885898895,
        "Mean Anomaly(deg)": 183.10053072730915,
        "RAAN(deg)": 59.99789975430128,
        "Satellite Name": "Test1 275",
        "Satellite Number": 275,
        "Semi-Major Axis(m)": 6980739.136638005,
        "Time(s)": 50
    },
    {
        "Altitude(m)": 605464.6199570718,
        "Argument of Periapsis(deg)": 0.0006251367547977843,
        "Eccentricity": 0.0,
        "Inclination(deg)": 60.0,
        "Latitude(deg)": -3.3342181442088545,
        "Longitude(deg)": 141.69461730394656,
        "Mean Anomaly(deg)": 183.72063687277094,
        "RAAN(deg)": 59.99747970516154,
        "Satellite Name": "Test1 275",
        "Satellite Number": 275,
        "Semi-Major Axis(m)": 6980739.136638005,
        "Time(s)": 60
    },
    {
        "Altitude(m)": 605555.9583523212,
        "Argument of Periapsis(deg)": 0.0007293262139307483,
        "Eccentricity": 0.0,
        "Inclination(deg)": 60.0,
        "Latitude(deg)": -3.874186194042865,
        "Longitude(deg)": 141.96390728103606,
        "Mean Anomaly(deg)": 184.34074301823284,
        "RAAN(deg)": 59.9970596560218,
        "Satellite Name": "Test1 275",
        "Satellite Number": 275,
        "Semi-Major Axis(m)": 6980739.136638005,
        "Time(s)": 70
    },
    {
        "Altitude(m)": 605650.4172547247,
        "Argument of Periapsis(deg)": 0.0008335156730637124,
        "Eccentricity": 0.0,
        "Inclination(deg)": 60.0,
        "Latitude(deg)": -4.414020373751493,
        "Longitude(deg)": 142.23358381641305,
        "Mean Anomaly(deg)": 184.9608491636947,
        "RAAN(deg)": 59.996639606882056,
        "Satellite Name": "Test1 275",
        "Satellite Number": 275,
        "Semi-Major Axis(m)": 6980739.136638005,
        "Time(s)": 80
    },
    {
        "Altitude(m)": 605747.9766224202,
        "Argument of Periapsis(deg)": 0.0009377051321966765,
        "Eccentricity": 0.0,
        "Inclination(deg)": 60.0,
        "Latitude(deg)": -4.953703344986233,
        "Longitude(deg)": 142.50370216086176,
        "Mean Anomaly(deg)": 185.58095530915648,
        "RAAN(deg)": 59.996219557742315,
        "Satellite Name": "Test1 275",
        "Satellite Number": 275,
        "Semi-Major Axis(m)": 6980739.136638005,
        "Time(s)": 90
    },
    {
        "Altitude(m)": 605848.6149207352,
        "Argument of Periapsis(deg)": 0.0010418945913296407,
        "Eccentricity": 0.0,
        "Inclination(deg)": 60.0,
        "Latitude(deg)": -5.493217691009723,
        "Longitude(deg)": 142.77431832679414,
        "Mean Anomaly(deg)": 186.2010614546183,
        "RAAN(deg)": 59.995799508602566,
        "Satellite Name": "Test1 275",
        "Satellite Number": 275,
        "Semi-Major Axis(m)": 6980739.136638005,
        "Time(s)": 100
    },
    {
        "Altitude(m)": 605952.3091299571,
        "Argument of Periapsis(deg)": 0.0011460840504626045,
        "Eccentricity": 0.0,
        "Inclination(deg)": 60.0,
        "Latitude(deg)": -6.032545906339443,
        "Longitude(deg)": 143.04548811260196,
        "Mean Anomaly(deg)": 186.82116760008014,
        "RAAN(deg)": 59.995379459462825,
        "Satellite Name": "Test1 275",
        "Satellite Number": 275,
        "Semi-Major Axis(m)": 6980739.136638005,
        "Time(s)": 110
    },
    {
        "Altitude(m)": 606059.0347538451,
        "Argument of Periapsis(deg)": 0.0012502735095955685,
        "Eccentricity": 0.0,
        "Inclination(deg)": 60.0,
        "Latitude(deg)": -6.571670386271184,
        "Longitude(deg)": 143.31726764014013,
        "Mean Anomaly(deg)": 187.44127374554193,
        "RAAN(deg)": 59.99495941032308,
        "Satellite Name": "Test1 275",
        "Satellite Number": 275,
        "Semi-Major Axis(m)": 6980739.136638005,
        "Time(s)": 120
    },
    {
        "Altitude(m)": 606168.765828867,
        "Argument of Periapsis(deg)": 0.0013544629687285324,
        "Eccentricity": 0.0,
        "Inclination(deg)": 60.0,
        "Latitude(deg)": -7.1105734162666865,
        "Longitude(deg)": 143.58971389249461,
        "Mean Anomaly(deg)": 188.06137989100378,
        "RAAN(deg)": 59.994539361183335,
        "Satellite Name": "Test1 275",
        "Satellite Number": 275,
        "Semi-Major Axis(m)": 6980739.136638005,
        "Time(s)": 130
    },
    {
        "Altitude(m)": 606281.4749341496,
        "Argument of Periapsis(deg)": 0.0014586524278614966,
        "Eccentricity": 0.0,
        "Inclination(deg)": 60.0,
        "Latitude(deg)": -7.649237161188192,
        "Longitude(deg)": 143.8628837391926,
        "Mean Anomaly(deg)": 188.68148603646563,
        "RAAN(deg)": 59.994119312043594,
        "Satellite Name": "Test1 275",
        "Satellite Number": 275,
        "Semi-Major Axis(m)": 6980739.136638005,
        "Time(s)": 140
    },
    {
        "Altitude(m)": 606397.1332021434,
        "Argument of Periapsis(deg)": 0.0015628418869944607,
        "Eccentricity": 0.0,
        "Inclination(deg)": 60.0,
        "Latitude(deg)": -8.18764365437007,
        "Longitude(deg)": 144.13683447462998,
        "Mean Anomaly(deg)": 189.30159218192745,
        "RAAN(deg)": 59.99369926290385,
        "Satellite Name": "Test1 275",
        "Satellite Number": 275,
        "Semi-Major Axis(m)": 6980739.136638005,
        "Time(s)": 150
    },
    {
        "Altitude(m)": 606515.7103300153,
        "Argument of Periapsis(deg)": 0.0016670313461274247,
        "Eccentricity": 0.0,
        "Inclination(deg)": 60.0,
        "Latitude(deg)": -8.725774786509815,
        "Longitude(deg)": 144.41162435687147,
        "Mean Anomaly(deg)": 189.9216983273893,
        "RAAN(deg)": 59.99327921376411,
        "Satellite Name": "Test1 275",
        "Satellite Number": 275,
        "Semi-Major Axis(m)": 6980739.136638005,
        "Time(s)": 160
    },
    {
        "Altitude(m)": 606637.174591721,
        "Argument of Periapsis(deg)": 0.0017712208052603888,
        "Eccentricity": 0.0,
        "Inclination(deg)": 60.0,
        "Latitude(deg)": -9.263612294361977,
        "Longitude(deg)": 144.68731163398076,
        "Mean Anomaly(deg)": 190.54180447285114,
        "RAAN(deg)": 59.99285916462437,
        "Satellite Name": "Test1 275",
        "Satellite Number": 275,
        "Semi-Major Axis(m)": 6980739.136638005,
        "Time(s)": 170
    },
    {
        "Altitude(m)": 606761.4928507957,
        "Argument of Periapsis(deg)": 0.001875410264393353,
        "Eccentricity": 0.0,
        "Inclination(deg)": 60.0,
        "Latitude(deg)": -9.801137749223061,
        "Longitude(deg)": 144.96395508365512,
        "Mean Anomaly(deg)": 191.16191061831296,
        "RAAN(deg)": 59.99243911548463,
        "Satellite Name": "Test1 275",
        "Satellite Number": 275,
        "Semi-Major Axis(m)": 6980739.136638005,
        "Time(s)": 180
    },
    {
        "Altitude(m)": 606888.6305738133,
        "Argument of Periapsis(deg)": 0.0019795997235263173,
        "Eccentricity": 0.0,
        "Inclination(deg)": 60.0,
        "Latitude(deg)": -10.338332545190008,
        "Longitude(deg)": 145.24161455332185,
        "Mean Anomaly(deg)": 191.78201676377475,
        "RAAN(deg)": 59.99201906634489,
        "Satellite Name": "Test1 275",
        "Satellite Number": 275,
        "Semi-Major Axis(m)": 6980739.136638005,
        "Time(s)": 190
    }
]